[{"OBJECT_NAME":"COSMO-SKYMED 3","OBJECT_ID":"2008-054A","EPOCH":"2026-03-09T22:03:15.183936","MEAN_MOTION":15.06259488,"ECCENTRICITY":0.00143526,"INCLINATION":97.8419,"RA_OF_ASC_NODE":285.8111,"ARG_OF_PERICENTER":240.3641,"MEAN_ANOMALY":119.6157,"EPHEMERIS_TYPE":0,"CLASSIFICATION_TYPE":"U","NORAD_CAT_ID":33412,"ELEMENT_SET_NO":999,"REV_AT_EPOCH":94199,"BSTAR":0.00061875413,"MEAN_MOTION_DOT":9.042e-5,"MEAN_MOTION_DDOT":0},{"OBJECT_NAME":"STARLINK-4071","OBJECT_ID":"2022-053R","EPOCH":"2026-03-09T12:15:43.875072","MEAN_MOTION":15.08824215,"ECCENTRICITY":0.00012572,"INCLINATION":53.2164,"RA_OF_ASC_NODE":154.9249,"ARG_OF_PERICENTER":86.5025,"MEAN_ANOMALY":273.6111,"EPHEMERIS_TYPE":0,"CLASSIFICATION_TYPE":"U","NORAD_CAT_ID":52671,"ELEMENT_SET_NO":999,"REV_AT_EPOCH":21101,"BSTAR":-0.00010472918,"MEAN_MOTION_DOT":-1.953e-5,"MEAN_MOTION_DDOT":0}]
